CCSDS_OEM_VERS = 2.0
CREATION_DATE = 1996-11-04T17:22:31
ORIGINATOR = NASA/JPL

META_START
OBJECT_NAME = MARS GLOBAL SURVEYOR
OBJECT_ID = 1996-062A
CENTER_NAME = MARS BARYCENTER
REF_FRAME = EME2000
TIME_SYSTEM = TDB
START_TIME = 1996-12-28T21:29:07.267
STOP_TIME = 1996-12-30T01:28:02.267
INTERPOLATION = HERMITE
INTERPOLATION_DEGREE = 7
META_STOP

1996-12-28T21:29:07.267 -2432.166 -063.042 1742.754 7.33702 -3.495867 -1.041945

COVARIANCE_START
3.3313494e-04
COVARIANCE_STOP
